NORAD_CAT_ID,OBJECT_NAME,OBJECT_TYPE,EPOCH,MEAN_MOTION,ECCENTRICITY,INCLINATION,RA_OF_ASC_NODE,ARG_OF_PERICENTER,MEAN_ANOMALY,BSTAR,MEAN_MOTION_DOT,MEAN_MOTION_DDOT,TLE_LINE0,TLE_LINE1,TLE_LINE2,SEMIMAJOR_AXIS,PERIOD,APOGEE,PERIGEE,DECAYED
52263.0,STARLINK-3786,PAYLOAD,2023-06-08 12:32:25,15.08837474,0.0001237,53.2168,301.4912,80.8426,279.2706,7.573e-05,9.18e-06,0.0,0 STARLINK-3786,1 52263U 22041C   23159.52252248  .00000918  00000-0  75730-4 0  9991,2 52263  53.2168 301.4912 0001237  80.8426 279.2706 15.08837474 62611,6917.888,95.438,540.609,538.897,0.0
52263.0,STARLINK-3786,PAYLOAD,2023-06-08 15:43:11,15.08842249,0.0001108,53.2165,300.8961,83.4268,276.685,0.00011406,1.528e-05,0.0,0 STARLINK-3786,1 52263U 22041C   23159.65499810  .00001528  00000-0  11406-3 0  9990,2 52263  53.2165 300.8961 0001108  83.4268 276.6850 15.08842249 62634,6917.874,95.437,540.505,538.972,0.0
52263.0,STARLINK-3786,PAYLOAD,2023-06-09 09:12:26,15.08841176,9.09e-05,53.2168,297.6252,85.2659,274.8437,4.3179e-05,4e-06,0.0,0 STARLINK-3786,1 52263U 22041C   23160.38364165  .00000400  00000-0  43179-4 0  9997,2 52263  53.2168 297.6252 0000909  85.2659 274.8437 15.08841176 63950,6917.877,95.437,540.371,539.113,0.0
52263.0,STARLINK-3786,PAYLOAD,2023-06-09 15:33:59,15.08841782,9.05e-05,53.2168,296.4357,84.0241,276.0855,4.5813e-05,4.42e-06,0.0,0 STARLINK-3786,1 52263U 22041C   23160.64860098  .00000442  00000-0  45813-4 0  9995,2 52263  53.2168 296.4357 0000905  84.0241 276.0855 15.08841782 62784,6917.875,95.437,540.366,539.114,0.0
52263.0,STARLINK-3786,PAYLOAD,2023-06-10 09:03:13,15.08838156,9.34e-05,53.2164,293.1647,79.8088,280.3009,5.5296e-05,5.92e-06,0.0,0 STARLINK-3786,1 52263U 22041C   23161.37724349  .00000592  00000-0  55296-4 0  9996,2 52263  53.2164 293.1647 0000934  79.8088 280.3009 15.08838156 62891,6917.886,95.438,540.397,539.105,0.0
52263.0,STARLINK-3786,PAYLOAD,2023-06-10 12:14:00,15.08838533,9.34e-05,53.2164,292.57,79.3223,280.7874,5.5373e-05,5.94e-06,0.0,0 STARLINK-3786,1 52263U 22041C   23161.50972331  .00000594  00000-0  55373-4 0  9995,2 52263  53.2164 292.5700 0000934  79.3223 280.7874 15.08838533 64121,6917.885,95.438,540.396,539.104,0.0
52263.0,STARLINK-3786,PAYLOAD,2023-06-10 20:10:55,15.08847514,0.0001024,53.2168,291.0825,87.9076,272.2033,0.00010242,1.343e-05,0.0,0 STARLINK-3786,1 52263U 22041C   23161.84091573  .00001343  00000-0  10242-3 0  9990,2 52263  53.2168 291.0825 0001024  87.9076 272.2033 15.08847514 62961,6917.857,95.437,540.431,539.014,0.0
52263.0,STARLINK-3786,PAYLOAD,2023-06-11 15:15:33,15.08840167,0.0001163,53.218,287.5145,86.0545,274.058,4.5665e-05,4.39e-06,0.0,0 STARLINK-3786,1 52263U 22041C   23162.63580243  .00000439  00000-0  45665-4 0  9998,2 52263  53.2180 287.5145 0001163  86.0545 274.0580 15.08840167 64297,6917.88,95.438,540.549,538.94,0.0
52263.0,STARLINK-3786,PAYLOAD,2023-06-11 20:01:41,15.08859791,0.0001138,53.2179,286.6225,91.1955,268.9168,0.00021897,3.201e-05,0.0,0 STARLINK-3786,1 52263U 22041C   23162.83450520  .00003201  00000-0  21897-3 0  9994,2 52263  53.2179 286.6225 0001138  91.1955 268.9168 15.08859791 63115,6917.82,95.436,540.472,538.898,0.0
52263.0,STARLINK-3786,PAYLOAD,2023-06-12 07:09:24,15.08839137,0.0002042,53.2179,284.5383,89.4231,270.6995,2.2765e-05,7.4e-07,0.0,0 STARLINK-3786,1 52263U 22041C   23163.29820496  .00000074  00000-0  22765-4 0  9999,2 52263  53.2179 284.5383 0002042  89.4231 270.6995 15.08839137 63186,6917.883,95.438,541.161,538.335,0.0
52263.0,STARLINK-3786,PAYLOAD,2023-06-12 15:06:20,15.08835941,0.0001698,53.2179,283.0505,92.5479,267.5708,-1.5175e-05,-5.3e-06,0.0,0 STARLINK-3786,1 52263U 22041C   23163.62940686 -.00000530  00000-0 -15175-4 0  9996,2 52263  53.2179 283.0505 0001698  92.5479 267.5708 15.08835941 63233,6917.893,95.438,540.932,538.583,0.0
52263.0,STARLINK-3786,PAYLOAD,2023-06-13 00:38:39,15.08836847,0.0001339,53.2184,281.2732,84.3212,275.7933,-7.0049e-05,-1.402e-05,0.0,0 STARLINK-3786,1 52263U 22041C   23164.02684975 -.00001402  00000-0 -70049-4 0  9997,2 52263  53.2184 281.2732 0001339  84.3212 275.7933 15.08836847 64505,6917.89,95.438,540.681,538.829,0.0
52263.0,STARLINK-3786,PAYLOAD,2023-06-13 18:07:53,15.08848763,0.000126,53.2176,278.0013,96.0837,264.0299,-1.9496e-05,-5.98e-06,0.0,0 STARLINK-3786,1 52263U 22041C   23164.75548206 -.00000598  00000-0 -19496-4 0  9997,2 52263  53.2176 278.0013 0001260  96.0837 264.0299 15.08848763 64616,6917.854,95.437,540.59,538.847,0.0
52263.0,STARLINK-3786,PAYLOAD,2023-06-14 10:01:45,15.08826593,0.0001265,53.218,275.0229,85.3122,274.8015,0.00022835,3.347e-05,0.0,0 STARLINK-3786,1 52263U 22041C   23165.41789095  .00003347  00000-0  22835-3 0  9997,2 52263  53.2180 275.0229 0001265  85.3122 274.8015 15.08826593 64713,6917.921,95.438,540.661,538.911,0.0
52263.0,STARLINK-3786,PAYLOAD,2023-06-14 16:23:17,15.08844542,0.0001456,53.2177,273.8338,85.9522,274.1636,0.000141,1.957e-05,0.0,0 STARLINK-3786,1 52263U 22041C   23165.68284290  .00001957  00000-0  14100-3 0  9994,2 52263  53.2177 273.8338 0001456  85.9522 274.1636 15.08844542 64758,6917.867,95.437,540.739,538.724,0.0
52263.0,STARLINK-3786,PAYLOAD,2023-06-15 00:20:14,15.08833584,0.0001636,53.2163,272.3474,83.3795,276.7383,5.1408e-05,5.3e-06,0.0,0 STARLINK-3786,1 52263U 22041C   23166.01405320  .00000530  00000-0  51408-4 0  9990,2 52263  53.2163 272.3474 0001636  83.3795 276.7383 15.08833584 64809,6917.9,95.438,540.897,538.633,0.0
52263.0,STARLINK-3786,PAYLOAD,2023-06-15 13:03:19,15.0884008,0.0001226,53.2165,269.9711,104.1467,255.9661,-1.0633e-05,-4.57e-06,0.0,0 STARLINK-3786,1 52263U 22041C   23166.54397124 -.00000457  00000-0 -10633-4 0  9995,2 52263  53.2165 269.9711 0001226 104.1467 255.9661 15.08840080 63671,6917.88,95.438,540.593,538.897,0.0
52263.0,STARLINK-3786,PAYLOAD,2023-06-15 14:38:42,15.0884158,0.0001251,53.2164,269.6735,102.4746,257.6386,1.9985e-06,-2.56e-06,0.0,0 STARLINK-3786,1 52263U 22041C   23166.61020990 -.00000256  00000-0  19985-5 0  9993,2 52263  53.2164 269.6735 0001251 102.4746 257.6386 15.08841580 64896,6917.876,95.437,540.606,538.875,0.0
52263.0,STARLINK-3786,PAYLOAD,2023-06-16 12:54:04,15.08860243,0.000132,53.2165,265.5104,89.3355,270.7788,0.00013837,1.916e-05,0.0,0 STARLINK-3786,1 52263U 22041C   23167.53755305  .00001916  00000-0  13837-3 0  9991,2 52263  53.2165 265.5104 0001320  89.3355 270.7788 15.08860243 63829,6917.819,95.436,540.597,538.77,0.0
52263.0,STARLINK-3786,PAYLOAD,2023-06-16 16:04:50,15.08875709,0.0001311,53.2165,264.9154,85.9464,274.1678,2.9652e-05,1.84e-06,0.0,0 STARLINK-3786,1 52263U 22041C   23167.67002450  .00000184  00000-0  29652-4 0  9991,2 52263  53.2165 264.9154 0001311  85.9464 274.1678 15.08875709 63841,6917.771,95.435,540.543,538.729,0.0
52263.0,STARLINK-3786,PAYLOAD,2023-06-17 00:01:47,15.08838064,0.0001047,53.2165,263.4292,92.8872,267.224,5.9054e-05,6.52e-06,0.0,0 STARLINK-3786,1 52263U 22041C   23168.00124576  .00000652  00000-0  59054-4 0  9992,2 52263  53.2165 263.4292 0001047  92.8872 267.2240 15.08838064 65106,6917.886,95.438,540.476,539.027,0.0
52263.0,STARLINK-3786,PAYLOAD,2023-06-17 06:23:20,15.08830786,0.0001626,53.2164,262.2396,97.8367,262.2809,4.1266e-05,3.69e-06,0.0,0 STARLINK-3786,1 52263U 22041C   23168.26621452  .00000369  00000-0  41266-4 0  9996,2 52263  53.2164 262.2396 0001626  97.8367 262.2809 15.08830786 65147,6917.909,95.438,540.898,538.649,0.0
52263.0,STARLINK-3786,PAYLOAD,2023-06-17 12:44:53,15.08830934,0.0001745,53.2159,261.05,96.9145,263.2046,-2.5435e-05,-6.93e-06,0.0,0 STARLINK-3786,1 52263U 22041C   23168.53117407 -.00000693  00000-0 -25435-4 0  9998,2 52263  53.2159 261.0500 0001745  96.9145 263.2046 15.08830934 63979,6917.908,95.438,540.98,538.566,0.0
52263.0,STARLINK-3786,PAYLOAD,2023-06-18 06:14:07,15.08841173,0.0001291,53.2159,257.7777,105.1019,255.0116,5.1011e-05,5.24e-06,0.0,0 STARLINK-3786,1 52263U 22041C   23169.25981056  .00000524  00000-0  51011-4 0  9997,2 52263  53.2159 257.7777 0001291 105.1019 255.0116 15.08841173 65297,6917.877,95.437,540.635,538.849,0.0
52263.0,STARLINK-3786,PAYLOAD,2023-06-18 12:35:39,15.08847572,0.0001273,53.2159,256.5889,103.0483,257.0652,0.00016858,2.397e-05,0.0,0 STARLINK-3786,1 52263U 22041C   23169.52476796  .00002397  00000-0  16858-3 0  9996,2 52263  53.2159 256.5889 0001273 103.0483 257.0652 15.08847572 64127,6917.857,95.437,540.603,538.842,0.0
52263.0,STARLINK-3786,PAYLOAD,2023-06-19 12:26:27,15.08843972,0.0001111,53.2152,252.1292,100.5209,259.5908,0.00030633,4.591e-05,0.0,0 STARLINK-3786,1 52263U 22041C   23170.51837249  .00004591  00000-0  30633-3 0  9996,2 52263  53.2152 252.1292 0001111 100.5209 259.5908 15.08843972 65480,6917.868,95.437,540.502,538.965,0.0
52263.0,STARLINK-3786,PAYLOAD,2023-06-20 05:55:41,15.0883948,0.0001089,53.2154,248.8587,97.008,263.1036,5.4593e-06,-2.01e-06,0.0,0 STARLINK-3786,1 52263U 22041C   23171.24701337 -.00000201  00000-0  54593-5 0  9993,2 52263  53.2154 248.8587 0001089  97.0080 263.1036 15.08839480 65596,6917.882,95.438,540.5,538.994,0.0
52263.0,STARLINK-3786,PAYLOAD,2023-06-20 12:17:14,15.08844275,0.0001062,53.2155,247.6697,94.0733,266.038,8.6702e-05,1.092e-05,0.0,0 STARLINK-3786,1 52263U 22041C   23171.51197204  .00001092  00000-0  86702-4 0  9999,2 52263  53.2155 247.6697 0001062  94.0733 266.0380 15.08844275 64422,6917.867,95.437,540.467,538.998,0.0
52263.0,STARLINK-3786,PAYLOAD,2023-06-20 15:28:00,15.0884519,0.000112,53.2156,247.0746,97.3553,262.7566,9.5735e-05,1.236e-05,0.0,0 STARLINK-3786,1 52263U 22041C   23171.64445069  .00001236  00000-0  95735-4 0  9994,2 52263  53.2156 247.0746 0001120  97.3553 262.7566 15.08845190 64441,6917.865,95.437,540.504,538.955,0.0
52263.0,STARLINK-3786,PAYLOAD,2023-06-21 12:08:01,15.08844065,0.0001136,53.2154,243.2088,88.1284,271.9838,0.00012962,1.776e-05,0.0,0 STARLINK-3786,1 52263U 22041C   23172.50557157  .00001776  00000-0  12962-3 0  9991,2 52263  53.2154 243.2088 0001136  88.1284 271.9838 15.08844065 65784,6917.868,95.437,540.519,538.947,0.0
